start=new Date('2022-02-24T00:00:00.000Z').valueOf();
sats=[{"INCLINATION":"53.0546","FILE":"3317219","LAUNCH_DATE":"2021-05-09","MEAN_ELEMENT_THEORY":"SGP4","GP_ID":"196784955","ELEMENT_SET_NO":"999","ECCENTRICITY":"0.00016720","OBJECT_ID":"2021-040AG","TIME_SYSTEM":"UTC","COUNTRY_CODE":"US","OBJECT_TYPE":"PAYLOAD","EPHEMERIS_TYPE":"0","DECAY_DATE":null,"NORAD_CAT_ID":"48458","OBJECT_NAME":"STARLINK-2698","REF_FRAME":"TEME","CENTER_NAME":"EARTH","MEAN_ANOMALY":"289.1279","PERIOD":"95.592","SEMIMAJOR_AXIS":"6925.333","BSTAR":"0.00044842000000","PERIAPSIS":"546.040","ARG_OF_PERICENTER":"70.9890","CLASSIFICATION_TYPE":"U","REV_AT_EPOCH":"4497","RA_OF_ASC_NODE":"327.6236","MEAN_MOTION":"15.06405205","TLE_LINE2":"2 48458  53.0546 327.6236 0001672  70.9890 289.1279 15.06405205 44972","APOAPSIS":"548.356","SITE":"AFETR","RCS_SIZE":"LARGE","MEAN_MOTION_DOT":"0.00006405","EPOCH":"2022-02-23T19:24:20.024640","TLE_LINE1":"1 48458U 21040AG  22054.80856510  .00006405  00000-0  44842-3 0  9992","MEAN_MOTION_DDOT":"0.0000000000000"},{"MEAN_ANOMALY":"303.7640","REF_FRAME":"TEME","CENTER_NAME":"EARTH","NORAD_CAT_ID":"48459","OBJECT_NAME":"STARLINK-2579","COUNTRY_CODE":"US","EPHEMERIS_TYPE":"0","OBJECT_TYPE":"PAYLOAD","DECAY_DATE":null,"ECCENTRICITY":"0.00015880","TIME_SYSTEM":"UTC","OBJECT_ID":"2021-040AH","GP_ID":"196743215","ELEMENT_SET_NO":"999","MEAN_ELEMENT_THEORY":"SGP4","INCLINATION":"53.0572","FILE":"3316306","LAUNCH_DATE":"2021-05-09","TLE_LINE1":"1 48459U 21040AH  22054.17827649 -.00000024  00000-0  17326-4 0  9994","MEAN_MOTION_DDOT":"0.0000000000000","MEAN_MOTION_DOT":"-0.00000024","EPOCH":"2022-02-23T04:16:43.088736","APOAPSIS":"548.354","TLE_LINE2":"2 48459  53.0572 330.4529 0001588  56.3501 303.7640 15.06386730 44170","RCS_SIZE":"LARGE","SITE":"AFETR","RA_OF_ASC_NODE":"330.4529","MEAN_MOTION":"15.06386730","ARG_OF_PERICENTER":"56.3501","CLASSIFICATION_TYPE":"U","REV_AT_EPOCH":"4417","PERIAPSIS":"546.154","PERIOD":"95.593","BSTAR":"0.00001732600000","SEMIMAJOR_AXIS":"6925.389"},{"RA_OF_ASC_NODE":"327.8319","MEAN_MOTION":"15.06399593","APOAPSIS":"548.725","TLE_LINE2":"2 48460  53.0555 327.8319 0002180  55.5525 304.5669 15.06399593 44762","RCS_SIZE":"LARGE","SITE":"AFETR","MEAN_MOTION_DOT":"-0.00000789","EPOCH":"2022-02-23T18:16:40.384128","TLE_LINE1":"1 48460U 21040AJ  22054.76157852 -.00000789  00000-0 -34036-4 0  9999","MEAN_MOTION_DDOT":"0.0000000000000","PERIOD":"95.592","BSTAR":"-0.00003403600000","SEMIMAJOR_AXIS":"6925.350","PERIAPSIS":"545.705","ARG_OF_PERICENTER":"55.5525","CLASSIFICATION_TYPE":"U","REV_AT_EPOCH":"4476","OBJECT_TYPE":"PAYLOAD","COUNTRY_CODE":"US","EPHEMERIS_TYPE":"0","DECAY_DATE":null,"NORAD_CAT_ID":"48460","OBJECT_NAME":"STARLINK-2582","REF_FRAME":"TEME","CENTER_NAME":"EARTH","MEAN_ANOMALY":"304.5669","FILE":"3317219","INCLINATION":"53.0555","LAUNCH_DATE":"2021-05-09","ELEMENT_SET_NO":"999","GP_ID":"196785957","MEAN_ELEMENT_THEORY":"SGP4","ECCENTRICITY":"0.00021800","TIME_SYSTEM":"UTC","OBJECT_ID":"2021-040AJ"},{"ECCENTRICITY":"0.00018570","OBJECT_ID":"2021-040AK","TIME_SYSTEM":"UTC","MEAN_ELEMENT_THEORY":"SGP4","GP_ID":"196786708","ELEMENT_SET_NO":"999","INCLINATION":"53.0566","FILE":"3317219","LAUNCH_DATE":"2021-05-09","MEAN_ANOMALY":"308.8782","REF_FRAME":"TEME","CENTER_NAME":"EARTH","NORAD_CAT_ID":"48461","OBJECT_NAME":"STARLINK-2693","COUNTRY_CODE":"US","OBJECT_TYPE":"PAYLOAD","EPHEMERIS_TYPE":"0","DECAY_DATE":null,"ARG_OF_PERICENTER":"51.2372","CLASSIFICATION_TYPE":"U","REV_AT_EPOCH":"4426","PERIAPSIS":"545.959","PERIOD":"95.593","SEMIMAJOR_AXIS":"6925.380","BSTAR":"0.00011438000000","TLE_LINE1":"1 48461U 21040AK  22054.77633290  .00001422  00000-0  11438-3 0  9999","MEAN_MOTION_DDOT":"0.0000000000000","MEAN_MOTION_DOT":"0.00001422","EPOCH":"2022-02-23T18:37:55.162560","TLE_LINE2":"2 48461  53.0566 327.7582 0001857  51.2372 308.8782 15.06389688 44261","APOAPSIS":"548.531","SITE":"AFETR","RCS_SIZE":"LARGE","RA_OF_ASC_NODE":"327.7582","MEAN_MOTION":"15.06389688"},{"TLE_LINE1":"1 48462U 21040AL  22054.79888919 -.00000143  00000-0  93004-5 0  9993","MEAN_MOTION_DDOT":"0.0000000000000","EPOCH":"2022-02-23T19:10:24.026016","MEAN_MOTION_DOT":"-0.00000143","TLE_LINE2":"2 48462  53.0557 332.6483 0001589  61.2742 298.8407 15.06390869 44198","APOAPSIS":"548.342","SITE":"AFETR","RCS_SIZE":"LARGE","RA_OF_ASC_NODE":"332.6483","MEAN_MOTION":"15.06390869","ARG_OF_PERICENTER":"61.2742","CLASSIFICATION_TYPE":"U","REV_AT_EPOCH":"4419","PERIAPSIS":"546.141","PERIOD":"95.593","SEMIMAJOR_AXIS":"6925.377","BSTAR":"0.00000930040000","MEAN_ANOMALY":"298.8407","REF_FRAME":"TEME","CENTER_NAME":"EARTH","NORAD_CAT_ID":"48462","OBJECT_NAME":"STARLINK-2683","COUNTRY_CODE":"US","OBJECT_TYPE":"PAYLOAD","EPHEMERIS_TYPE":"0","DECAY_DATE":null,"ECCENTRICITY":"0.00015890","OBJECT_ID":"2021-040AL","TIME_SYSTEM":"UTC","MEAN_ELEMENT_THEORY":"SGP4","ELEMENT_SET_NO":"999","GP_ID":"196785456","INCLINATION":"53.0557","FILE":"3317219","LAUNCH_DATE":"2021-05-09"},{"NORAD_CAT_ID":"48463","OBJECT_NAME":"STARLINK-2689","COUNTRY_CODE":"US","EPHEMERIS_TYPE":"0","OBJECT_TYPE":"PAYLOAD","DECAY_DATE":null,"MEAN_ANOMALY":"301.1480","REF_FRAME":"TEME","CENTER_NAME":"EARTH","GP_ID":"196785706","ELEMENT_SET_NO":"999","MEAN_ELEMENT_THEORY":"SGP4","FILE":"3317219","INCLINATION":"53.0556","LAUNCH_DATE":"2021-05-09","ECCENTRICITY":"0.00017100","TIME_SYSTEM":"UTC","OBJECT_ID":"2021-040AM","APOAPSIS":"548.396","TLE_LINE2":"2 48463  53.0556 332.8204 0001710  58.9676 301.1480 15.06400741 44196","RCS_SIZE":"LARGE","SITE":"AFETR","RA_OF_ASC_NODE":"332.8204","MEAN_MOTION":"15.06400741","TLE_LINE1":"1 48463U 21040AM  22054.76570626  .00000774  00000-0  70884-4 0  9993","MEAN_MOTION_DDOT":"0.0000000000000","MEAN_MOTION_DOT":"0.00000774","EPOCH":"2022-02-23T18:22:37.020864","PERIOD":"95.592","BSTAR":"0.00007088400000","SEMIMAJOR_AXIS":"6925.346","CLASSIFICATION_TYPE":"U","ARG_OF_PERICENTER":"58.9676","REV_AT_EPOCH":"4419","PERIAPSIS":"546.027"},{"FILE":"3317219","INCLINATION":"53.0543","LAUNCH_DATE":"2021-05-09","MEAN_ELEMENT_THEORY":"SGP4","ELEMENT_SET_NO":"999","GP_ID":"196786458","ECCENTRICITY":"0.00017640","OBJECT_ID":"2021-040AN","TIME_SYSTEM":"UTC","OBJECT_TYPE":"PAYLOAD","COUNTRY_CODE":"US","EPHEMERIS_TYPE":"0","DECAY_DATE":null,"NORAD_CAT_ID":"48464","OBJECT_NAME":"STARLINK-2686","REF_FRAME":"TEME","CENTER_NAME":"EARTH","MEAN_ANOMALY":"292.1995","PERIOD":"95.592","SEMIMAJOR_AXIS":"6925.347","BSTAR":"0.00016939000000","PERIAPSIS":"545.990","CLASSIFICATION_TYPE":"U","ARG_OF_PERICENTER":"67.9181","REV_AT_EPOCH":"4418","RA_OF_ASC_NODE":"332.9148","MEAN_MOTION":"15.06400594","TLE_LINE2":"2 48464  53.0543 332.9148 0001764  67.9181 292.1995 15.06400594 44186","APOAPSIS":"548.433","SITE":"AFETR","RCS_SIZE":"LARGE","MEAN_MOTION_DOT":"0.00002242","EPOCH":"2022-02-23T17:52:07.868928","TLE_LINE1":"1 48464U 21040AN  22054.74453552  .00002242  00000-0  16939-3 0  9992","MEAN_MOTION_DDOT":"0.0000000000000"},{"MEAN_MOTION_DDOT":"0.0000000000000","TLE_LINE1":"1 48465U 21040AP  22054.75560445  .00005673  00000-0  39940-3 0  9992","MEAN_MOTION_DOT":"0.00005673","EPOCH":"2022-02-23T18:08:04.224480","RCS_SIZE":"LARGE","SITE":"AFETR","APOAPSIS":"548.262","TLE_LINE2":"2 48465  53.0551 332.8624 0001525  67.5197 292.5954 15.06402628 44192","MEAN_MOTION":"15.06402628","RA_OF_ASC_NODE":"332.8624","REV_AT_EPOCH":"4419","CLASSIFICATION_TYPE":"U","ARG_OF_PERICENTER":"67.5197","PERIAPSIS":"546.149","BSTAR":"0.00039940000000","SEMIMAJOR_AXIS":"6925.341","PERIOD":"95.592","MEAN_ANOMALY":"292.5954","CENTER_NAME":"EARTH","REF_FRAME":"TEME","OBJECT_NAME":"STARLINK-2681","NORAD_CAT_ID":"48465","DECAY_DATE":null,"COUNTRY_CODE":"US","OBJECT_TYPE":"PAYLOAD","EPHEMERIS_TYPE":"0","TIME_SYSTEM":"UTC","OBJECT_ID":"2021-040AP","ECCENTRICITY":"0.00015250","ELEMENT_SET_NO":"999","GP_ID":"196786208","MEAN_ELEMENT_THEORY":"SGP4","LAUNCH_DATE":"2021-05-09","FILE":"3317219","INCLINATION":"53.0551"},{"GP_ID":"196743465","ELEMENT_SET_NO":"999","MEAN_ELEMENT_THEORY":"SGP4","INCLINATION":"53.0567","FILE":"3316306","LAUNCH_DATE":"2021-05-09","ECCENTRICITY":"0.00016960","TIME_SYSTEM":"UTC","OBJECT_ID":"2021-040AQ","NORAD_CAT_ID":"48466","OBJECT_NAME":"STARLINK-2687","EPHEMERIS_TYPE":"0","COUNTRY_CODE":"US","OBJECT_TYPE":"PAYLOAD","DECAY_DATE":null,"MEAN_ANOMALY":"302.9336","REF_FRAME":"TEME","CENTER_NAME":"EARTH","PERIOD":"95.593","BSTAR":"0.00005995100000","SEMIMAJOR_AXIS":"6925.372","CLASSIFICATION_TYPE":"U","ARG_OF_PERICENTER":"57.1816","REV_AT_EPOCH":"4415","PERIAPSIS":"546.063","APOAPSIS":"548.412","TLE_LINE2":"2 48466  53.0567 334.1187 0001696  57.1816 302.9336 15.06392200 44151","RCS_SIZE":"LARGE","SITE":"AFETR","RA_OF_ASC_NODE":"334.1187","MEAN_MOTION":"15.06392200","TLE_LINE1":"1 48466U 21040AQ  22054.47547450  .00000611  00000-0  59951-4 0  9995","MEAN_MOTION_DDOT":"0.0000000000000","MEAN_MOTION_DOT":"0.00000611","EPOCH":"2022-02-23T11:24:40.996800"},{"MEAN_MOTION_DDOT":"0.0000000000000","TLE_LINE1":"1 48467U 21040AR  22054.76664690  .00000562  00000-0  56645-4 0  9996","EPOCH":"2022-02-23T18:23:58.292160","MEAN_MOTION_DOT":"0.00000562","SITE":"AFETR","RCS_SIZE":"LARGE","TLE_LINE2":"2 48467  53.0548 332.8143 0001542  63.5476 296.5671 15.06403616 44199","APOAPSIS":"548.270","MEAN_MOTION":"15.06403616","RA_OF_ASC_NODE":"332.8143","REV_AT_EPOCH":"4419","CLASSIFICATION_TYPE":"U","ARG_OF_PERICENTER":"63.5476","PERIAPSIS":"546.135","SEMIMAJOR_AXIS":"6925.337","BSTAR":"0.00005664500000","PERIOD":"95.592","MEAN_ANOMALY":"296.5671","CENTER_NAME":"EARTH","REF_FRAME":"TEME","OBJECT_NAME":"STARLINK-2659","NORAD_CAT_ID":"48467","DECAY_DATE":null,"COUNTRY_CODE":"US","OBJECT_TYPE":"PAYLOAD","EPHEMERIS_TYPE":"0","OBJECT_ID":"2021-040AR","TIME_SYSTEM":"UTC","ECCENTRICITY":"0.00015420","MEAN_ELEMENT_THEORY":"SGP4","GP_ID":"196785206","ELEMENT_SET_NO":"999","LAUNCH_DATE":"2021-05-09","FILE":"3317219","INCLINATION":"53.0548"}];
